GLOBALSTAR M057         
1 25943U 99058A   24143.78507399 -.00000068  00000+0  23050-3 0  9993
2 25943  52.0011  16.1240 0001567 302.9016  57.1682 12.24788017119097
GLOBALSTAR M059         
1 25944U 99058B   24143.43553782 -.00000015  00000+0  88431-3 0  9999
2 25944  51.9993 184.2660 0000629 240.0683 223.2970 11.99962172527139
GLOBALSTAR M056         
1 25945U 99058C   24144.14957301 -.00000088  00000+0 -80618-5 0  9996
2 25945  51.9945 194.3104 0001060 135.2547 259.1505 12.04775702115656
GLOBALSTAR M031         
1 25946U 99058D   24143.42554855  .00000031  00000+0  12385-2 0  9993
2 25946  51.9953 111.9997 0001485  90.5183  87.0434 12.16008766117003
GLOBALSTAR M039         
1 25961U 99062A   24143.80155179 -.00000046  00000+0  32134-3 0  9995
2 25961  51.9869  17.7202 0002359 185.4050 174.6792 12.62291985130919
GLOBALSTAR M034         
1 25962U 99062B   24143.69920569 -.00000085  00000+0 -69827-4 0  9990
2 25962  51.9888 306.4137 0014031  27.2721 106.4485 11.79429520 92312
GLOBALSTAR M029         
1 25963U 99062C   24144.08461609 -.00000087  00000+0 -49448-5 0  9990
2 25963  51.9815  70.8783 0003081  66.6249  37.1902 11.99878330122347
GLOBALSTAR M061         
1 25964U 99062D   24144.16513944 -.00000082  00000+0 -37070-4 0  9992
2 25964  51.9770 124.0665 0006310 313.1641 131.9145 11.76762624 75558
